CCSDS_OEM_VERS = 1.0
CREATION_DATE  = 2017-05-11T11:06:12
ORIGINATOR     = GMAT USER

META_START
OBJECT_NAME          = MOPSSat_alt_35785_km_RAAN_0_134
OBJECT_ID            = SatId
CENTER_NAME          = Earth
REF_FRAME            = EME2000
TIME_SYSTEM          = UTC
START_TIME           = 2017-01-01T00:00:00.000
USEABLE_START_TIME   = 2017-01-01T00:00:00.000
USEABLE_STOP_TIME    = 2017-01-02T00:00:00.000
STOP_TIME            = 2017-01-02T00:00:00.000
INTERPOLATION        = Lagrange
INTERPOLATION_DEGREE = 7 
META_STOP


                                                                                   

2017-01-01T18:20:00.000  -2.863297840986173e+04  -3.710698160402656e+04   2.737177868951311e+00   2.655888603176455e+00  -7.073994451116865e-01  -4.161941027018268e-05
2017-01-01T18:20:10.000  -2.860641398105610e+04  -3.711404841355795e+04   2.736761089807856e+00   2.656997008401724e+00  -7.059622251102475e-01  -4.173642934508385e-05
2017-01-01T18:20:20.000  -2.857983846959998e+04  -3.712110084462391e+04   2.736343140097296e+00   2.658105138450889e+00  -7.045237532193768e-01  -4.185352378134452e-05
2017-01-01T18:20:30.000  -2.855325187845881e+04  -3.712813888464464e+04   2.735924019069188e+00   2.659212992482928e+00  -7.030840283386074e-01  -4.197069360547262e-05
2017-01-01T18:20:40.000  -2.852665421067142e+04  -3.713516252101208e+04   2.735503725973849e+00   2.660320569652107e+00  -7.016430493698613e-01  -4.208793884366436e-05
2017-01-01T18:20:50.000  -2.850004546873830e+04  -3.714217174125161e+04   2.735082260052692e+00   2.661427869133459e+00  -7.002008151843189e-01  -4.220525952450183e-05
2017-01-01T18:21:00.000  -2.847342565523173e+04  -3.714916653286054e+04   2.734659620547851e+00   2.662534890097356e+00  -6.987573246554533e-01  -4.232265567626196e-05
2017-01-01T18:21:10.000  -2.844679477265777e+04  -3.715614688334511e+04   2.734235806700027e+00   2.663641631715274e+00  -6.973125766515703e-01  -4.244012732752559e-05
2017-01-01T18:21:20.000  -2.842015282379962e+04  -3.716311278012794e+04   2.733810817753812e+00   2.664748093145418e+00  -6.958665700543428e-01  -4.255767450565955e-05
2017-01-01T18:21:30.000  -2.839349981146314e+04  -3.717006421061717e+04   2.733384652953772e+00   2.665854273543387e+00  -6.944193037450975e-01  -4.267529723794292e-05
2017-01-01T18:21:40.000  -2.836683573847632e+04  -3.717700116220577e+04   2.732957311544400e+00   2.666960172062169e+00  -6.929707766047459e-01  -4.279299555156776e-05
2017-01-01T18:21:50.000  -2.834016060794704e+04  -3.718392362220665e+04   2.732528792774364e+00   2.668065787841527e+00  -6.915209875278777e-01  -4.291076947250831e-05
2017-01-01T18:22:00.000  -2.831347442291651e+04  -3.719083157794073e+04   2.732099095890837e+00   2.669171120022293e+00  -6.900699354038433e-01  -4.302861902704330e-05
2017-01-01T18:22:10.000  -2.828677718649559e+04  -3.719772501670190e+04   2.731668220141708e+00   2.670276167740718e+00  -6.886176191241831e-01  -4.314654424115703e-05
2017-01-01T18:22:20.000  -2.826006890126241e+04  -3.720460392591283e+04   2.731236164765869e+00   2.671380930153417e+00  -6.871640375498619e-01  -4.326454514318747e-05
2017-01-01T18:22:30.000  -2.823334956986476e+04  -3.721146829296900e+04   2.730802929002924e+00   2.672485406412416e+00  -6.857091895440234e-01  -4.338262176117856e-05
2017-01-01T18:22:40.000  -2.820661919488407e+04  -3.721831810527431e+04   2.730368512091006e+00   2.673589595670796e+00  -6.842530739646063e-01  -4.350077412347547e-05
2017-01-01T18:22:50.000  -2.817987777918012e+04  -3.722515335015026e+04   2.729932913272256e+00   2.674693497068341e+00  -6.827956896830272e-01  -4.361900225721736e-05
2017-01-01T18:23:00.000  -2.815312532563561e+04  -3.723197401490389e+04   2.729496131788798e+00   2.675797109742200e+00  -6.813370355703601e-01  -4.373730618944988e-05
2017-01-01T18:23:10.000  -2.812636183715558e+04  -3.723878008682697e+04   2.729058166882685e+00   2.676900432826860e+00  -6.798771104972645e-01  -4.385568594713374e-05
2017-01-01T18:23:20.000  -2.809958731692619e+04  -3.724557155313245e+04   2.728619017800260e+00   2.678003465443573e+00  -6.784159133481925e-01  -4.397414155598365e-05
2017-01-01T18:23:30.000  -2.807280176806677e+04  -3.725234840104083e+04   2.728178683786343e+00   2.679106206714600e+00  -6.769534430023190e-01  -4.409267304202341e-05
2017-01-01T18:23:40.000  -2.804600519376937e+04  -3.725911061774517e+04   2.727737164086538e+00   2.680208655757490e+00  -6.754896983411759e-01  -4.421128043096317e-05
2017-01-01T18:23:50.000  -2.801919759668392e+04  -3.726585819056635e+04   2.727294457937116e+00   2.681310811710359e+00  -6.740246782150698e-01  -4.432996375093289e-05
2017-01-01T18:24:00.000  -2.799237897953459e+04  -3.727259110679727e+04   2.726850564575151e+00   2.682412673706531e+00  -6.725583814767365e-01  -4.444872302974235e-05
2017-01-01T18:24:10.000  -2.796554934496075e+04  -3.727930935374327e+04   2.726405483235917e+00   2.683514240881077e+00  -6.710908069726654e-01  -4.456755829558869e-05
2017-01-01T18:24:20.000  -2.793870869594420e+04  -3.728601291861308e+04   2.725959213159858e+00   2.684615512353194e+00  -6.696219535663881e-01  -4.468646957515507e-05
2017-01-01T18:24:30.000  -2.791185703545693e+04  -3.729270178860903e+04   2.725511753586862e+00   2.685716487240744e+00  -6.681518201192841e-01  -4.480545689518007e-05
2017-01-01T18:24:40.000  -2.788499436653962e+04  -3.729937595090683e+04   2.725063103757527e+00   2.686817164656999e+00  -6.666804054948566e-01  -4.492452028210603e-05
2017-01-01T18:24:50.000  -2.785812069228114e+04  -3.730603539266204e+04   2.724613262912901e+00   2.687917543711542e+00  -6.652077085576543e-01  -4.504365976217995e-05
2017-01-01T18:25:00.000  -2.783123601579102e+04  -3.731268010101574e+04   2.724162230293953e+00   2.689017623511336e+00  -6.637337281717270e-01  -4.516287536156493e-05
2017-01-01T18:25:10.000  -2.780434034019000e+04  -3.731931006309712e+04   2.723710005141426e+00   2.690117403161126e+00  -6.622584632001042e-01  -4.528216710638618e-05
2017-01-01T18:25:20.000  -2.777743366851412e+04  -3.732592526604755e+04   2.723256586694267e+00   2.691216881767367e+00  -6.607819124995618e-01  -4.540153502314456e-05
2017-01-01T18:25:30.000  -2.775051600377848e+04  -3.733252569700425e+04   2.722801974190642e+00   2.692316058435588e+00  -6.593040749240842e-01  -4.552097913844520e-05
2017-01-01T18:25:40.000  -2.772358734897728e+04  -3.733911134310040e+04   2.722346166867951e+00   2.693414932270396e+00  -6.578249493248782e-01  -4.564049947899359e-05
2017-01-01T18:25:50.000  -2.769664770701935e+04  -3.734568219148021e+04   2.721889163961703e+00   2.694513502378070e+00  -6.563445345467936e-01  -4.576009607189099e-05
2017-01-01T18:26:00.000  -2.766969708082464e+04  -3.735223822927583e+04   2.721430964707175e+00   2.695611767862641e+00  -6.548628294336527e-01  -4.587976894419721e-05
2017-01-01T18:26:10.000  -2.764273547333415e+04  -3.735877944360504e+04   2.720971568339585e+00   2.696709727825490e+00  -6.533798328287910e-01  -4.599951812288907e-05
2017-01-01T18:26:20.000  -2.761576288753605e+04  -3.736530582156388e+04   2.720510974094479e+00   2.697807381364233e+00  -6.518955435764556e-01  -4.611934363474072e-05
2017-01-01T18:26:30.000  -2.758877932648815e+04  -3.737181735022242e+04   2.720049181208188e+00   2.698904727571859e+00  -6.504099605230871e-01  -4.623924550622664e-05
2017-01-01T18:26:40.000  -2.756178479323817e+04  -3.737831401664354e+04   2.719586188916431e+00   2.700001765539942e+00  -6.489230825129103e-01  -4.635922376387498e-05
2017-01-01T18:26:50.000  -2.753477929118058e+04  -3.738479580779876e+04   2.719121996460538e+00   2.701098494344217e+00  -6.474349084076546e-01  -4.647927843268114e-05
2017-01-01T18:27:00.000  -2.750776282362448e+04  -3.739126271067047e+04   2.718656603079940e+00   2.702194913062057e+00  -6.459454370626860e-01  -4.659940953802898e-05
2017-01-01T18:27:10.000  -2.748073539395422e+04  -3.739771471221378e+04   2.718190008014947e+00   2.703291020765959e+00  -6.444546673358666e-01  -4.671961710497612e-05
2017-01-01T18:27:20.000  -2.745369700500785e+04  -3.740415179950502e+04   2.717722210496028e+00   2.704386816548766e+00  -6.429625980532796e-01  -4.683990116102004e-05
2017-01-01T18:27:30.000  -2.742664765969701e+04  -3.741057395959346e+04   2.717253209754499e+00   2.705482299498492e+00  -6.414692280434068e-01  -4.696026173333846e-05
2017-01-01T18:27:40.000  -2.739958736086673e+04  -3.741698117953519e+04   2.716783005020118e+00   2.706577468704033e+00  -6.399745561294069e-01  -4.708069884941427e-05
2017-01-01T18:27:50.000  -2.737251611164438e+04  -3.742337344630795e+04   2.716311595527012e+00   2.707672323240932e+00  -6.384785811482945e-01  -4.720121253547877e-05
2017-01-01T18:28:00.000  -2.734543391518107e+04  -3.742975074687493e+04   2.715838980509325e+00   2.708766862181947e+00  -6.369813019367511e-01  -4.732180281766675e-05
2017-01-01T18:28:10.000  -2.731834077465104e+04  -3.743611306818400e+04   2.715365159201157e+00   2.709861084597029e+00  -6.354827173310545e-01  -4.744246972201698e-05
2017-01-01T18:28:20.000  -2.729123669351368e+04  -3.744246039710831e+04   2.714890130841269e+00   2.710954989542843e+00  -6.339828261816601e-01  -4.756321327331329e-05
2017-01-01T18:28:30.000  -2.726412167516123e+04  -3.744879272052705e+04   2.714413894666813e+00   2.712048576076884e+00  -6.324816273336277e-01  -4.768403349664492e-05
2017-01-01T18:28:40.000  -2.723699572305744e+04  -3.745511002529320e+04   2.713936449915766e+00   2.713141843251906e+00  -6.309791196343090e-01  -4.780493041679250e-05
2017-01-01T18:28:50.000  -2.720985884012553e+04  -3.746141229837641e+04   2.713457795816186e+00   2.714234790140593e+00  -6.294753018994527e-01  -4.792590406094276e-05
2017-01-01T18:29:00.000  -2.718271102936010e+04  -3.746769952672000e+04   2.712977931596953e+00   2.715327415810867e+00  -6.279701729470849e-01  -4.804695445597420e-05
